G21;
G90;
G0 Z20;
G0 Y77;
M3 S8000;
G0 X-10;
G1 Z17 F100;
G4 P1;
G1 Z16.7 F100;
G4 P1;
G0 Z17.7;
G1 Z16.7 F100;
G4 P1;
G1 Z16.4 F100;
G4 P1;
G0 Z17.4;
G1 Z16.4 F100;
G4 P1;
G1 Z16.1 F100;
G4 P1;
G0 Z17.1;
G1 Z16.1 F100;
G4 P1;
G1 Z15.8 F100;
G4 P1;
G0 Z16.8;
G1 Z15.8 F100;
G4 P1;
G1 Z15.5 F100;
G4 P1;
G0 Z16.5;
G1 Z15.5 F100;
G4 P1;
G1 Z15.2 F100;
G4 P1;
G0 Z16.2;
G1 Z15.2 F100;
G4 P1;
G1 Z14.9 F100;
G4 P1;
G0 Z15.9;
G1 Z14.9 F100;
G4 P1;
G1 Z14.6 F100;
G4 P1;
G0 Z15.6;
G1 Z14.6 F100;
G4 P1;
G1 Z14.3 F100;
G4 P1;
G0 Z15.3;
G1 Z14.3 F100;
G4 P1;
G1 Z14.0 F100;
G4 P1;
G0 Z15.0;
G1 Z14.0 F100;
G4 P1;
G1 Z13.7 F100;
G4 P1;
G0 Z14.7;
G1 Z13.7 F100;
G4 P1;
G1 Z13.4 F100;
G4 P1;
G0 Z14.4;
G1 Z13.4 F100;
G4 P1;
G1 Z13.1 F100;
G4 P1;
G0 Z14.1;
G1 Z13.1 F100;
G4 P1;
G1 Z12.8 F100;
G4 P1;
G0 Z13.8;
G1 Z12.8 F100;
G4 P1;
G1 Z12.5 F100;
G4 P1;
G0 Z13.5;
G1 Z12.5 F100;
G4 P1;
G1 Z12.2 F100;
G4 P1;
G0 Z13.2;
G1 Z12.2 F100;
G4 P1;
G1 Z11.9 F100;
G4 P1;
G0 Z12.9;
G1 Z11.9 F100;
G4 P1;
G1 Z11.6 F100;
G4 P1;
G0 Z12.6;
G1 Z11.6 F100;
G4 P1;
G1 Z11.3 F100;
G4 P1;
G0 Z12.3;
G1 Z11.3 F100;
G4 P1;
G1 Z11.0 F100;
G4 P1;
G0 Z12.0;
G1 Z11.0 F100;
G4 P1;
G1 Z10.7 F100;
G4 P1;
G0 Z11.7;
G1 Z10.7 F100;
G4 P1;
G1 Z10.4 F100;
G4 P1;
G0 Z11.4;
G1 Z10.4 F100;
G4 P1;
G1 Z10.1 F100;
G4 P1;
G0 Z11.1;
G1 Z10.1 F100;
G4 P1;
G1 Z9.8 F100;
G4 P1;
G0 Z10.8;
G1 Z9.8 F100;
G4 P1;
G1 Z9.5 F100;
G4 P1;
G0 Z10.5;
G1 Z9.5 F100;
G4 P1;
G1 Z9.2 F100;
G4 P1;
G0 Z10.2;
G1 Z9.2 F100;
G4 P1;
G1 Z8.9 F100;
G4 P1;
G0 Z9.9;
G1 Z8.9 F100;
G4 P1;
G1 Z8.6 F100;
G4 P1;
G0 Z9.6;
G1 Z8.6 F100;
G4 P1;
G1 Z8.3 F100;
G4 P1;
G0 Z9.3;
G1 Z8.3 F100;
G4 P1;
G1 Z8.0 F100;
G4 P1;
G0 Z9.0;
G1 Z8.0 F100;
G4 P1;
G1 Z7.7 F100;
G4 P1;
G0 Z8.7;
G1 Z7.7 F100;
G4 P1;
G1 Z7.4 F100;
G4 P1;
G0 Z8.4;
G1 Z7.4 F100;
G4 P1;
G1 Z7.1 F100;
G4 P1;
G0 Z8.1;
G1 Z7.1 F100;
G4 P1;
G1 Z6.8 F100;
G4 P1;
G0 Z7.8;
G1 Z6.8 F100;
G4 P1;
G1 Z6.5 F100;
G4 P1;
G0 Z7.5;
G1 Z6.5 F100;
G4 P1;
G1 Z6.2 F100;
G4 P1;
G0 Z7.2;
G1 Z6.2 F100;
G4 P1;
G1 Z5.9 F100;
G4 P1;
G0 Z6.9;
G1 Z5.9 F100;
G4 P1;
G1 Z5.6 F100;
G4 P1;
G0 Z6.6;
G1 Z5.6 F100;
G4 P1;
G1 Z5.3 F100;
G4 P1;
G0 Z6.3;
G1 Z5.3 F100;
G4 P1;
G1 Z5.0 F100;
G4 P1;
G0 Z6.0;
G1 Z5.0 F100;
G4 P1;
G1 Z4.7 F100;
G4 P1;
G0 Z5.7;
G1 Z4.7 F100;
G4 P1;
G1 Z4.4 F100;
G4 P1;
G0 Z5.4;
G1 Z4.4 F100;
G4 P1;
G1 Z4.1 F100;
G4 P1;
G0 Z5.1;
G1 Z4.1 F100;
G4 P1;
G1 Z3.8 F100;
G4 P1;
G0 Z4.8;
G1 Z3.8 F100;
G4 P1;
G1 Z3.5 F100;
G4 P1;
G0 Z4.5;
G1 Z3.5 F100;
G4 P1;
G1 Z3.2 F100;
G4 P1;
G0 Z4.2;
G1 Z3.2 F100;
G4 P1;
G1 Z2.9 F100;
G4 P1;
G0 Z3.9;
G1 Z2.9 F100;
G4 P1;
G1 Z2.6 F100;
G4 P1;
G0 Z3.6;
G1 Z2.6 F100;
G4 P1;
G1 Z2.3 F100;
G4 P1;
G0 Z3.3;
G1 Z2.3 F100;
G4 P1;
G1 Z2.0 F100;
G4 P1;
G0 Z3.0;
G1 Z2.0 F100;
G4 P1;
G1 Z1.7 F100;
G4 P1;
G0 Z2.7;
G1 Z1.7 F100;
G4 P1;
G1 Z1.4 F100;
G4 P1;
G0 Z2.4;
G1 Z1.4 F100;
G4 P1;
G1 Z1.1 F100;
G4 P1;
G0 Z2.1;
G1 Z1.1 F100;
G4 P1;
G1 Z.8 F100;
G4 P1;
G0 Z1.8;
G1 Z.8 F100;
G4 P1;
G1 Z.5 F100;
G4 P1;
G0 Z1.5;
G1 Z.5 F100;
G4 P1;
G1 Z.2 F100;
G4 P1;
G0 Z1.2;
G1 Z.2 F100;
G4 P1;
G1 Z0 F100;
G4 P1;
G0 Z1;
M2;
