; -23.66// bottom bar
; G0 X16.42// top bar
; 2.273
; Y64.6 // 1 in side
; Y13.8 1 in side

; // for tombstomb clamp, channel holes
; /Users/tylerhenry/Desktop/whttlr/api/.gcode/tombstone_bottom_top_right_hole.gcode
G21;
G90;
G0 Z28;
G0 Y13.8; 
M3 S8000;
G0 X-23.66

; G1 Z25 F100;
; G0 Z28;
; G1 Z24.7 F100;
; G0 Z28;
; G1 Z24.3 F100;
; G0 Z28;
; G1 Z24 F100;
; G0 Z28;


; G1 Z27 F100;
; G0 Z32;
; G1 Z26.7 F100;
; G0 Z31.7;
; G1 Z26.3 F100;
; G0 Z31.3;
; G1 Z26 F100;
; G0 Z31;

; G1 Z25.7 F100;
; G0 Z30.7;
; G1 Z25.3 F100;
; G0 Z30.3;
; G1 Z25 F100;
; G0 Z30;

; G1 Z24.7 F100;
; G0 Z29.7;
; G1 Z24.3 F100;
; G0 Z29.3;
; G1 Z24 F100;
; G0 Z29;

; G1 Z23.7 F100;
; G0 Z28.7;
; G1 Z23.3 F100;
; G0 Z28.3;
; G1 Z23 F100;
; G0 Z28;

; G1 Z22.7 F100;
; G0 Z27.7;
; G1 Z22.3 F100;
; G0 Z27.3;
; G1 Z22 F100;
; G0 Z27;

; G1 Z21.7 F100;
; G0 Z26.7;
; G1 Z21.3 F100;
; G0 Z26.3;
; G1 Z21 F100;
; G0 Z26;

; G1 Z20.7 F100;
; G0 Z25.7;
; G1 Z20.3 F100;
; G0 Z25.3;
; G1 Z20 F100;
; G0 Z25;

; G1 Z19.7 F100;
; G0 Z24.7;
; G1 Z19.3 F100;
; G0 Z24.3;
; G1 Z19 F100;
; G0 Z24;

; G1 Z18.7 F100;
; G0 Z23.7;
; G1 Z18.3 F100;
; G0 Z23.3;
; G1 Z18 F100;
; G0 Z23;

; G1 Z17.7 F100;
; G0 Z22.7;
; G1 Z17.3 F100;
; G0 Z22.3;
; G1 Z17 F100;
; G0 Z22;

; G1 Z16.7 F100;
; G0 Z21.7;
; G1 Z16.3 F100;
; G0 Z21.3;
; G1 Z16 F100;
; G0 Z21;

; G1 Z15.7 F100;
; G0 Z20.7;
; G1 Z15.3 F100;
; G0 Z20.3;
; G1 Z15 F100;
; G0 Z20;

; G1 Z14.7 F100;
; G0 Z19.7;
; G1 Z14.3 F100;
; G0 Z19.3;
; G1 Z14 F100;
; G0 Z19;

; G1 Z13.7 F100;
; G0 Z18.7;
; G1 Z13.3 F100;
; G0 Z18.3;
; G1 Z13 F100;
; G0 Z18;

; G1 Z12.7 F100;
; G0 Z17.7;
; G1 Z12.3 F100;
; G0 Z17.3;
; G1 Z12 F100;
; G0 Z17;

; G1 Z11.7 F100;
; G0 Z16.7;
; G1 Z11.3 F100;
; G0 Z16.3;
; G1 Z11 F100;
; G0 Z16;

; G1 Z10.7 F100;
; G0 Z15.7;
; G1 Z10.3 F100;
; G0 Z15.3;
; G1 Z10 F100;
; G0 Z15;

; G1 Z9.7 F100;
; G0 Z14.7;
; G1 Z9.3 F100;
; G0 Z14.3;
; G1 Z9 F100;
; G0 Z14;

; G1 Z8.7 F100;
; G0 Z13.7;
; G1 Z8.3 F100;
; G0 Z13.3;
; G1 Z8 F100;
; G0 Z13;

; G1 Z7.7 F100;
; G0 Z12.7;
; G1 Z7.3 F100;
; G0 Z12.3;
; G1 Z7 F100;
; G0 Z12;

; G1 Z6.7 F100;
; G0 Z11.7;
; G1 Z6.3 F100;
; G0 Z11.3;
; G1 Z6 F100;
; G0 Z11;

; G1 Z5.7 F100;
; G0 Z10.7;
; G1 Z5.3 F100;
; G0 Z10.3;
; G1 Z5 F100;
; G0 Z10;

; G1 Z4.7 F100;
; G0 Z9.7;
; G1 Z4.3 F100;
; G0 Z9.3;
; G1 Z4 F100;
; G0 Z9;

; G1 Z3.7 F100;
; G0 Z8.7;
; G1 Z3.3 F100;
; G0 Z8.3;
; G1 Z3 F100;
; G0 Z8;

; G1 Z2.7 F100;
; G0 Z7.7;
; G1 Z2.3 F100;
; G0 Z7.3;
; G1 Z2 F100;
; G0 Z7;

; G1 Z1 F100;
; G0 Z5;
; G1 Z0.7 F100;
; G0 Z5;
; G1 Z0.3 F100;
; G0 Z5;
; G1 Z0 F100;
; G0 Z5;

; G1 Z0 F100;
; G0 Z5;
; G1 Z-0.3 F100;
; G0 Z5;
; G1 Z-0.7 F100;
; G0 Z5;
; G1 Z-1 F100;
; G0 Z5;


; G1 Z-1 F100;
; G0 Z5;
; G1 Z-1.3 F100;
; G0 Z5;
; G1 Z-1.7 F100;
; G0 Z5;
; G1 Z-2 F100;
; G0 Z5;

; G1 Z-2 F100;
; G0 Z5;
; G1 Z-2.3 F100;
; G0 Z5;
; G1 Z-2.7 F100;
; G0 Z5;
; G1 Z-3 F100;
; G0 Z5;


G1 Z-3 F100;
G0 Z5;
G1 Z-3.3 F100;
G0 Z5;
G1 Z-3.7 F100;
G0 Z5;
G1 Z-4 F100;
G0 Z5;

G1 Z-4 F100;
G0 Z5;
G1 Z-4.3 F100;
G0 Z5;
G1 Z-4.7 F100;
G0 Z5;
G1 Z-5 F100;
G0 Z5;

G1 Z-5 F100;
G0 Z0;
G1 Z-5.3 F100;
G0 Z0;
G1 Z-5.7 F100;
G0 Z0;
G1 Z-6 F100;
G0 Z0;

G1 Z-6 F100;
G0 Z0;
G1 Z-6.3 F100;
G0 Z0;
G1 Z-6.7 F100;
G0 Z0;
G1 Z-7 F100;
G0 Z0;

G1 Z-7 F100;
G0 Z0;
G1 Z-7.3 F100;
G0 Z0;
G1 Z-7.7 F100;
G0 Z0;
G1 Z-8 F100;
G0 Z0;


M2;